SAUDISAT 1C             
1 27607U 02058C   19052.22730402 -.00000036  00000-0  15860-4 0  9998
2 27607  64.5548  48.7207 0082105 278.8352  80.3460 14.75521432869700
SAUDISAT 2              
1 28371U 04025F   19052.08372018 -.00000029  00000-0  38623-5 0  9997
2 28371  98.2174   2.7034 0024948 241.4479 118.4211 14.54331640777064
SAUDISAT 3              
1 31118U 07012B   19051.95283412  .00000018  00000-0  10996-4 0  9992
2 31118  97.7962  24.8884 0015990 101.7424 258.5566 14.69124337635127
PISAT                   
1 41784U 16059B   19052.13368395  .00000079  00000-0  24353-4 0  9997
2 41784  98.0855 114.8198 0032565  34.0467 326.2816 14.63404046128368
FLYING LAPTOP           
1 42831U 17042G   19051.95149489  .00000089  00000-0  14387-4 0  9991
2 42831  97.5786 309.6846 0015680  91.9472 268.3543 14.90956239 87396
